[
  {
    "name": "KUIPER-00140",
    "noradId": "65965",
    "line1": "1 65965U 25228U   26192.32491326  .00001650  00000+0  24541-3 0  9990",
    "line2": "2 65965  51.8973 158.9481 0000637  73.8799 286.2233 14.79936674 41749"
  },
  {
    "name": "KUIPER-00141",
    "noradId": "65966",
    "line1": "1 65966U 25228V   26192.26279865  .00001445  00000+0  21858-3 0  9996",
    "line2": "2 65966  51.9020 154.2771 0000743  72.6160 287.4884 14.79929535 41802"
  },
  {
    "name": "KUIPER-00146",
    "noradId": "65967",
    "line1": "1 65967U 25228W   26191.34844979  .00000974  00000+0  15675-3 0  9995",
    "line2": "2 65967  51.9012 160.8304 0000754  60.3221 299.7816 14.79929747 41630"
  },
  {
    "name": "KUIPER-00149",
    "noradId": "65968",
    "line1": "1 65968U 25228X   26192.87324971  .00001501  00000+0  22599-3 0  9990",
    "line2": "2 65968  51.8996 148.9740 0000781  82.9864 277.1187 14.79915633 41938"
  },
  {
    "name": "KUIPER-00154",
    "noradId": "65969",
    "line1": "1 65969U 25228Y   26192.23440569 -.00000555  00000+0 -43858-4 0  9995",
    "line2": "2 65969  51.8982 149.2897 0000769  71.5000 288.6046 14.79928101 41871"
  },
  {
    "name": "KUIPER-00157",
    "noradId": "65970",
    "line1": "1 65970U 25228Z   26192.29406274  .00001837  00000+0  26228-3 0  9991",
    "line2": "2 65970  51.9009 151.6110 0001046  41.0687 319.0354 14.81192023 41848"
  },
  {
    "name": "KUIPER-00144",
    "noradId": "67133",
    "line1": "1 67133U 25301A   26192.48577480  .00001238  00000+0  19141-3 0  9996",
    "line2": "2 67133  51.9008 228.1930 0000320  86.3520 273.7479 14.79934210 32205"
  },
  {
    "name": "KUIPER-00164",
    "noradId": "67134",
    "line1": "1 67134U 25301B   26192.79305264  .00000857  00000+0  15247-3 0  9999",
    "line2": "2 67134  51.9053 239.1667 0001703 330.8066  29.2799 14.76500157 32253"
  },
  {
    "name": "KUIPER-00175",
    "noradId": "67135",
    "line1": "1 67135U 25301C   26192.83336806 -.00059447  00000+0 -76890-2 0  9992",
    "line2": "2 67135  51.8980 221.6213 0000792 173.5104  28.2889 14.80735741  5575"
  },
  {
    "name": "KUIPER-00179",
    "noradId": "67136",
    "line1": "1 67136U 25301D   26192.13734568  .00000726  00000+0  12421-3 0  9998",
    "line2": "2 67136  51.8962 239.7045 0000466  87.0454 273.0562 14.79927791 32196"
  },
  {
    "name": "KUIPER-00181",
    "noradId": "67137",
    "line1": "1 67137U 25301E   26192.59655367  .00001329  00000+0  20310-3 0  9994",
    "line2": "2 67137  51.9024 250.2116 0001230  61.2393 298.8693 14.79976032 32068"
  },
  {
    "name": "KUIPER-00183",
    "noradId": "67138",
    "line1": "1 67138U 25301F   26192.43807648  .00001661  00000+0  18297-3 0  9999",
    "line2": "2 67138  51.8969 223.5205 0009552 113.5034 246.6939 14.92761892 32432"
  },
  {
    "name": "KUIPER-00184",
    "noradId": "67139",
    "line1": "1 67139U 25301G   26192.44659807  .00001314  00000+0  20127-3 0  9993",
    "line2": "2 67139  51.8982 233.3405 0000227  86.3030 273.7959 14.79929871 32400"
  },
  {
    "name": "KUIPER-00186",
    "noradId": "67140",
    "line1": "1 67140U 25301H   26192.15762817  .00001429  00000+0  21647-3 0  9994",
    "line2": "2 67140  51.9011 252.1644 0001104  85.1546 274.9542 14.79933263 31842"
  },
  {
    "name": "KUIPER-00187",
    "noradId": "67141",
    "line1": "1 67141U 25301J   26191.14199264  .00001027  00000+0  16378-3 0  9992",
    "line2": "2 67141  51.9024 259.1774 0000548  92.4678 267.6348 14.79921052 31651"
  },
  {
    "name": "KUIPER-00188",
    "noradId": "67142",
    "line1": "1 67142U 25301K   26192.42633002  .00001008  00000+0  16125-3 0  9997",
    "line2": "2 67142  51.8980 221.0809 0000814 109.5722 250.5329 14.79935320 32299"
  }
]